#cP2014 12 31  0  0  0.00000000      96 ORBIT IGb08 HLM  IGS
## 1825 259200.00000000   900.00000000 57022 0.0000000000000
+   32   G01G02G03G04G05G06G07G08G09G10G11G12G13G14G15G16G17
+        G18G19G20G21G22G23G24G25G26G27G28G29G30G31G32  0  0
+          0  0  0  0  0  0  0  0  0  0  0  0  0  0  0  0  0
+          0  0  0  0  0  0  0  0  0  0  0  0  0  0  0  0  0
+          0  0  0  0  0  0  0  0  0  0  0  0  0  0  0  0  0
++         2  2  2  2  2  2  2  2  2  2  2  2  2  2  2  2  2
++         2  2  2  2  2  2  2  2  2  2  2  2  2  2  2  0  0
++         0  0  0  0  0  0  0  0  0  0  0  0  0  0  0  0  0
++         0  0  0  0  0  0  0  0  0  0  0  0  0  0  0  0  0
++         0  0  0  0  0  0  0  0  0  0  0  0  0  0  0  0  0
%c G  cc GPS ccc cccc cccc cccc cccc ccccc ccccc ccccc ccccc
%c cc cc ccc ccc cccc cccc cccc cccc ccccc ccccc ccccc ccccc
%f  1.2500000  1.025000000  0.00000000000  0.000000000000000
%f  0.0000000  0.000000000  0.00000000000  0.000000000000000
%i    0    0    0    0      0      0      0      0         0
%i    0    0    0    0      0      0      0      0         0
/* FINAL ORBIT COMBINATION FROM WEIGHTED AVERAGE OF:        
/* cod emr esa gfz grg jpl mit ngs sio                      
/* REFERENCED TO IGS TIME (IGST) AND TO WEIGHTED MEAN POLE: 
/* PCV:IGS08_1822 OL/AL:FES2004  NONE     Y  ORB:CMB CLK:CMB
*  2014 12 31  6 45  0.00000000
PG01  13586.543343 -22436.493514   3518.896020    -10.646943  6  7  5  94       
PG02 -16987.255945   2703.121239 -19784.541099    539.033870  6  6  5 132       
PG03  16312.829686 -12926.930166 -16524.619534    115.486006  6  3  7  75       
PG04  17184.437683 -15526.902697  12451.103247     -4.979760  5  6  3 114       
PG05 -26567.208065   2211.688525    -51.655672   -299.166397  5  5  6 127       
PG06 -10735.098078 -11893.948824 -21197.571673     39.239432  5  6  4 124       
PG07   5638.383681 -24286.547692   8720.320767    427.215129  5  9  4  69       
PG08  18363.605790  -8673.528321 -16522.828725     16.929165  8  8  5 125       
PG09  -4440.568677 -22636.731221 -13161.872616    -41.587280  7  5  5 122       
PG10 -19032.535825 -10379.293604 -15999.004390   -156.692559  7  7  4 119       
PG11  11977.588003 -20034.042813  12016.046518   -547.460840  4  5  6 112       
PG12 -19115.729495  10567.160495 -15036.275581    257.689857  6  8  5 123       
PG13 -17767.435157  -6884.310380  18311.967373    -74.424279  6  7  5  98       
PG14  15203.677441  21581.130891  -3343.923881    101.306379  6  9  5 129       
PG15 -11161.939163  11228.886970  21225.895914   -223.519929  4  7  4 117       
PG16  26761.195938   -438.138883      4.181364   -168.880332  3  4  4 105       
PG17 -14837.082316 -22125.007121  -1264.218508   -147.182786  4  8  4  80       
PG18   4457.106119  15776.029720  21393.644699    368.913648  4  8  7  98       
PG19  14491.555963  -4573.989748  21644.155264   -494.702225  4  6  5 119       
PG20   8282.766931 -16126.429219 -19596.295915    273.358731  4  7  7  99       
PG21    617.141517  22922.682319  13715.265925   -403.345594  5  9  4 113       
PG22  17679.825674  11083.805203  16741.513938    302.379872  4  7  5 116       
PG23   5346.270674 -16942.448659 -19480.076915    -78.322307  6  6  4 110       
PG24 -14835.843617  20886.647421   6722.365521    -40.973061  6  5  5 105       
PG25  -5897.279854  14858.113808 -21262.171979      6.205082  4  6  4  94       
PG26 -17133.764131  -3814.286663  19356.899458   -175.862241  3  7  5  93       
PG27  18829.233820   5394.294320  17966.877247     40.928906  4  7  6 119       
PG28 -12550.545970 -13094.255795  20067.419616    409.109095  4  8  5  98       
PG29   1128.290728  21737.065571 -15215.423996    582.947593  3  6  6 120       
PG30  -2661.914155 -19911.520768  17350.891569    -86.109735  6  6  5  98       
PG31  11881.970988   9066.696439 -21785.380556    326.405600  7  8  5  99       
PG32  24711.644272  -5144.655554  -7297.867764   -258.459010  2  7  6 106       
*  2014 12 31  7  0  0.00000000
PG01  13592.208335 -21809.302810   6311.491300    -10.646648  5  7  4  94       
PG02 -16200.393173    436.100344 -20636.185260    539.036323  6  5  6 124       
PG03  18098.046797 -12947.513356 -14534.279811    115.510472  7  3  7  92       
PG04  16806.121717 -13938.623360  14628.218939     -4.979757  5  6  3 115       
PG05 -26440.931648   1912.913148  -2861.461552   -299.162059  5  6  6 104       
PG06  -9722.161680 -14042.957742 -20355.986503     39.247742  5  6  4 123       
PG07   6205.312848 -24945.828341   5990.978407    427.218312  5  9  5  66       
PG08  17423.937436  -6846.094018 -18334.961459     16.928580  8  8  5 133       
PG09  -3311.063393 -21446.039220 -15314.153123    -41.596670  7  5  5 100       
PG10 -17201.039577 -10728.599973 -17748.850434   -156.694784  7  7  4 128       
PG11  12218.191981 -18415.857064  14106.457589   -547.462756  4  5  5 117       
PG12 -20703.661024  10527.435028 -12760.468444    257.692726  6  8  5 114       
PG13 -18661.295041  -8702.938464  16566.178805    -74.427501  6  7  5 102       
PG14  15143.556922  21906.194901   -492.892564    101.302914  6  9  5 118       
PG15 -12721.182989   9326.377551  21297.969160   -223.521914  3  7  4 107       
PG16  26612.408018   -286.025151  -2879.302082   -168.877563  3  4  3  90       
PG17 -14670.412723 -22250.735238   1598.938909   -147.185212  4  7  4 101       
PG18   2107.696363  16078.295452  21503.348953    368.915695  3  8  8  91       
PG19  15746.213606  -2437.364237  21151.737401   -494.703545  4  5  5 117       
PG20  10422.717389 -16352.959419 -18326.239254    273.362785  4  7  7 106       
PG21   -172.631106  24070.750793  11425.519232   -403.347174  4  9  5 100       
PG22  15745.438315  11521.305747  18308.140960    302.384048  4  7  5 106       
PG23   6815.925190 -15132.137059 -20516.285182    -78.324418  6  6  4 101       
PG24 -14718.161218  19930.192269   9369.257944    -40.973997  6  5  4 105       
PG25  -8251.674374  15050.590331 -20305.752537      6.203082  4  6  4 108       
PG26 -18183.771072  -5806.023710  17923.312031   -175.874170  3  7  5  95       
PG27  19874.916909   7048.929815  16187.586593     40.931262  4  6  5 114       
PG28 -10326.889711 -13245.033807  21229.579190    409.112112  4  8  5  99       
PG29    -14.840303  20270.650840 -17150.997218    582.949783  3  6  6 126       
PG30  -1624.884356 -21491.403470  15490.435209    -86.110167  6  6  5  92       
PG31  10765.995084  11299.896124 -21290.342903    326.405064  7  8  5 112       
PG32  25410.633310  -4838.996098  -4549.763805   -258.451270  2  7  6 104       
*  2014 12 31  7 15  0.00000000
PG01  13521.039816 -20891.607321   8994.242870    -10.646424  4  6  4  93       
PG02 -15498.589726  -1934.706271 -21119.595489    539.038042  6  5  6 128       
PG03  19643.812297 -13020.088985 -12294.329742    115.534906  7  4  6  78       
PG04  16425.640279 -12112.574306  16545.512500     -4.980044  5  5  3 119       
PG05 -26021.280558   1553.900364  -5622.590087   -299.157720  4  6  6 111       
PG06  -8862.446695 -16133.855000 -19164.610910     39.256004  4  5  4 120       
PG07   6620.802646 -25339.008036   3156.595396    427.221492  5  8  6  65       
PG08  16501.031503  -4802.848003 -19818.585672     16.930647  9  8  5 128       
PG09  -1974.664576 -20140.136862 -17202.874903    -41.606061  7  5  5 122       
PG10 -15213.462614 -11197.995169 -19206.109994   -156.695890  7  7  4 109       
PG11  12519.337504 -16582.680727  15944.499182   -547.465469  3  4  5 110       
PG12 -22023.197490  10541.477855 -10263.591144    257.695392  6  7  5 121       
PG13 -19532.947959 -10290.764574  14531.011753    -74.430507  6  7  5 108       
PG14  14915.379364  21970.140124   2366.572180    101.299602  7  9  5 106       
PG15 -14358.861294   7512.370144  21001.205737   -223.524125  3  7  4 107       
PG16  26153.000772    -90.351251  -5714.380243   -168.874589  3  5  4  95       
PG17 -14318.214076 -22128.821091   4435.031767   -147.187384  4  7  4  96       
PG18   -220.430809  16491.455674  21258.132823    368.918762  2  8  8  84       
PG19  17066.769404   -438.075101  20292.119041   -494.704919  3  5  5 124       
PG20  12396.448964 -16642.278618 -16745.101280    273.366237  4  7  7 103       
PG21   -823.208586  25006.189957   8941.063424   -403.349266  4  9  5 107       
PG22  13678.674405  12077.141951  19566.542606    302.387271  4  7  4 111       
PG23   8433.017499 -13323.970596 -21192.562831    -78.327202  6  6  3 102       
PG24 -14552.174281  18694.590475  11853.582304    -40.974423  6  5  4 111       
PG25 -10467.529386  15349.712166 -19001.032976      6.201054  5  5  4 109       
PG26 -19232.592156  -7580.462042  16167.822378   -175.886074  3  7  6 101       
PG27  20867.325849   8478.824901  14130.482807     40.933706  4  6  5 118       
PG28  -8008.591519 -13535.745069  22046.635349    409.114529  4  8  5 101       
PG29  -1357.035513  18705.247002 -18791.182309    582.951655  2  7  6 126       
PG30   -764.351362 -22917.393944  13362.855026    -86.110617  6  6  5  95       
PG31   9800.155498  13520.249640 -20422.215009    326.404375  7  9  6 104       
PG32  25805.866679  -4539.841999  -1720.691458   -258.443742     7  5 104       
EOF
